GEOSCAN 3 (RS92S3)      
1 64893U 25155T   26191.25795173  .00014099  00000+0  40134-3 0  9993
2 64893  97.4541 161.4175 0008638 100.1036 260.1183 15.36195077 84392
INNOSAT 3 (RS92S0)      
1 64894U 25155U   26191.30985567  .00028571  00000+0  59435-3 0  9992
2 64894  97.4488 163.3884 0008329 101.5134 258.7050 15.45561132 84533
KNACKSAT-2              
1 67683U 98067XZ  26189.28582417  .00035828  00000+0  40782-3 0  9992
2 67683  51.6260 188.2015 0008208 303.7179  56.3032 15.61884949 23576
