OBJECT_NAME,OBJECT_ID,EPOCH,MEAN_MOTION,ECCENTRICITY,INCLINATION,RA_OF_ASC_NODE,ARG_OF_PERICENTER,MEAN_ANOMALY,EPHEMERIS_TYPE,CLASSIFICATION_TYPE,NORAD_CAT_ID,ELEMENT_SET_NO,REV_AT_EPOCH,BSTAR,MEAN_MOTION_DOT,MEAN_MOTION_DDOT
GEOSCAN 3 (RS92S3),2025-155T,2026-07-10T06:11:27.029472,15.36195077,.00086382,97.4541,161.4175,100.1036,260.1183,0,U,64893,999,8439,.40133775E-3,.14099E-3,0
INNOSAT 3 (RS92S0),2025-155U,2026-07-10T07:26:11.529888,15.45561132,.00083296,97.4488,163.3884,101.5134,258.7050,0,U,64894,999,8453,.594348E-3,.28571E-3,0
KNACKSAT-2,1998-067XZ,2026-07-08T06:51:35.208288,15.61884949,.00082087,51.6260,188.2015,303.7179,56.3032,0,U,67683,999,2357,.40782476E-3,.35828E-3,0
